{"type": "FeatureCollection", "features": [ {"type": "Feature", "properties": {"norad_id": 31805, "name": "FENGYUN 1C DEB", "group": "fengyun-1c-debris", "lat": 80.05434083140739, "lon": -93.77947954539893, "alt_km": 907.1758247019161, "timestamp": "2025-12-04T10:51:50.389529+00:00", "meta": {"OBJECT_NAME": "FENGYUN 1C DEB", "OBJECT_ID": "1999-025CGT", "EPOCH": "2025-12-01T05:23:40.108128", "MEAN_MOTION": 14.02670631, "ECCENTRICITY": 0.0447098, "INCLINATION": 98.3662, "RA_OF_ASC_NODE": 320.3008, "ARG_OF_PERICENTER": 191.6465, "MEAN_ANOMALY": 167.4086, "EPHEMERIS_TYPE": 0, "CLASSIFICATION_TYPE": "U", "NORAD_CAT_ID": 31805, "ELEMENT_SET_NO": 999, "REV_AT_EPOCH": 62202, "BSTAR": 0.0013339, "MEAN_MOTION_DOT": 4.977e-05, "MEAN_MOTION_DDOT": 0}, "tle": {"line1": "1 31805U 99025CGT 25335.22476977  .00004977  00000+0  13339-2 0  9991", "line2": "2 31805  98.3662 320.3008 0447098 191.6465 167.4086 14.02670631622027"}}, "geometry": {"type": "Point", "coordinates": [-93.77947954539893, 80.05434083140739]}}, {"type": "Feature", "properties": {"norad_id": 31807, "name": "FENGYUN 1C DEB", "group": "fengyun-1c-debris", "lat": 17.850090958861642, "lon": 105.78400113380607, "alt_km": 793.2803669093628, "timestamp": "2025-12-04T10:51:50.389539+00:00", "meta": {"OBJECT_NAME": "FENGYUN 1C DEB", "OBJECT_ID": "1999-025CGV", "EPOCH": "2025-12-04T02:30:33.983136", "MEAN_MOTION": 14.51918423, "ECCENTRICITY": 0.0105551, "INCLINATION": 99.0768, "RA_OF_ASC_NODE": 108.359, "ARG_OF_PERICENTER": 188.356, "MEAN_ANOMALY": 171.5879, "EPHEMERIS_TYPE": 0, "CLASSIFICATION_TYPE": "U", "NORAD_CAT_ID": 31807, "ELEMENT_SET_NO": 999, "REV_AT_EPOCH": 65180, "BSTAR": 0.0021745, "MEAN_MOTION_DOT": 9.385e-05, "MEAN_MOTION_DDOT": 0}, "tle": {"line1": "1 31807U 99025CGV 25338.10455999  .00009385  00000+0  21745-2 0  9992", "line2": "2 31807  99.0768 108.3590 0105551 188.3560 171.5879 14.51918423651800"}}, "geometry": {"type": "Point", "coordinates": [105.78400113380607, 17.850090958861642]}}, {"type": "Feature", "properties": {"norad_id": 31808, "name": "FENGYUN 1C DEB", "group": "fengyun-1c-debris", "lat": -69.21686894007638, "lon": -170.13788199554966, "alt_km": 725.803358496003, "timestamp": "2025-12-04T10:51:50.389549+00:00", "meta": {"OBJECT_NAME": "FENGYUN 1C DEB", "OBJECT_ID": "1999-025CGW", "EPOCH": "2025-12-03T07:09:51.542208", "MEAN_MOTION": 14.56458132, "ECCENTRICITY": 0.0037987, "INCLINATION": 99.2042, "RA_OF_ASC_NODE": 163.2972, "ARG_OF_PERICENTER": 170.223, "MEAN_ANOMALY": 189.9712, "EPHEMERIS_TYPE": 0, "CLASSIFICATION_TYPE": "U", "NORAD_CAT_ID": 31808, "ELEMENT_SET_NO": 999, "REV_AT_EPOCH": 57465, "BSTAR": 0.0070427, "MEAN_MOTION_DOT": 0.00031692, "MEAN_MOTION_DDOT": 0}, "tle": {"line1": "1 31808U 99025CGW 25337.29851322  .00031692  00000+0  70427-2 0  9999", "line2": "2 31808  99.2042 163.2972 0037987 170.2230 189.9712 14.56458132574650"}}, "geometry": {"type": "Point", "coordinates": [-170.13788199554966, -69.21686894007638]}}, {"type": "Feature", "properties": {"norad_id": 31810, "name": "FENGYUN 1C DEB", "group": "fengyun-1c-debris", "lat": 81.49876265221064, "lon": -109.2943198058884, "alt_km": 686.0687806701308, "timestamp": "2025-12-04T10:51:50.389559+00:00", "meta": {"OBJECT_NAME": "FENGYUN 1C DEB", "OBJECT_ID": "1999-025CGY", "EPOCH": "2025-12-02T18:34:02.794944", "MEAN_MOTION": 14.45755419, "ECCENTRICITY": 0.02141225, "INCLINATION": 98.2699, "RA_OF_ASC_NODE": 352.4032, "ARG_OF_PERICENTER": 170.6735, "MEAN_ANOMALY": 189.8534, "EPHEMERIS_TYPE": 0, "CLASSIFICATION_TYPE": "U", "NORAD_CAT_ID": 31810, "ELEMENT_SET_NO": 999, "REV_AT_EPOCH": 64270, "BSTAR": 0.00070820977, "MEAN_MOTION_DOT": 3.284e-05, "MEAN_MOTION_DDOT": 0}, "tle": {"line1": "1 31810U 99025CGY 25336.77364346  .00003284  00000+0  70821-3 0  9994", "line2": "2 31810  98.2699 352.4032 0214122 170.6735 189.8534 14.45755419642700"}}, "geometry": {"type": "Point", "coordinates": [-109.2943198058884, 81.49876265221064]}}, {"type": "Feature", "properties": {"norad_id": 31813, "name": "FENGYUN 1C DEB", "group": "fengyun-1c-debris", "lat": -73.54863546035953, "lon": -157.2397107565387, "alt_km": 752.3970044300922, "timestamp": "2025-12-04T10:51:50.389570+00:00", "meta": {"OBJECT_NAME": "FENGYUN 1C DEB", "OBJECT_ID": "1999-025CHB", "EPOCH": "2025-12-03T00:32:58.175520", "MEAN_MOTION": 14.49726248, "ECCENTRICITY": 0.01366901, "INCLINATION": 99.4283, "RA_OF_ASC_NODE": 55.4063, "ARG_OF_PERICENTER": 2.4724, "MEAN_ANOMALY": 357.7113, "EPHEMERIS_TYPE": 0, "CLASSIFICATION_TYPE": "U", "NORAD_CAT_ID": 31813, "ELEMENT_SET_NO": 999, "REV_AT_EPOCH": 97115, "BSTAR": 0.00051301891, "MEAN_MOTION_DOT": 2.164e-05, "MEAN_MOTION_DDOT": 0}, "tle": {"line1": "1 31813U 99025CHB 25337.02289555  .00002164  00000+0  51302-3 0  9993", "line2": "2 31813  99.4283  55.4063 0136690   2.4724 357.7113 14.49726248971157"}}, "geometry": {"type": "Point", "coordinates": [-157.2397107565387, -73.54863546035953]}}, {"type": "Feature", "properties": {"norad_id": 31814, "name": "FENGYUN 1C DEB", "group": "fengyun-1c-debris", "lat": 30.82033471675758, "lon": 22.652560939507648, "alt_km": 1162.7814493432843, "timestamp": "2025-12-04T10:51:50.389580+00:00", "meta": {"OBJECT_NAME": "FENGYUN 1C DEB", "OBJECT_ID": "1999-025CHC", "EPOCH": "2025-11-24T20:29:55.792608", "MEAN_MOTION": 13.66443116, "ECCENTRICITY": 0.0229144, "INCLINATION": 99.5736, "RA_OF_ASC_NODE": 18.9365, "ARG_OF_PERICENTER": 261.41, "MEAN_ANOMALY": 96.1022, "EPHEMERIS_TYPE": 0, "CLASSIFICATION_TYPE": "U", "NORAD_CAT_ID": 31814, "ELEMENT_SET_NO": 999, "REV_AT_EPOCH": 61555, "BSTAR": 0.00071428, "MEAN_MOTION_DOT": 6.63e-06, "MEAN_MOTION_DDOT": 0}, "tle": {"line1": "1 31814U 99025CHC 25328.85411797  .00000663  00000+0  71428-3 0  9993", "line2": "2 31814  99.5736  18.9365 0229144 261.4100  96.1022 13.66443116615553"}}, "geometry": {"type": "Point", "coordinates": [22.652560939507648, 30.82033471675758]}}, {"type": "Feature", "properties": {"norad_id": 31815, "name": "FENGYUN 1C DEB", "group": "fengyun-1c-debris", "lat": 3.4659996044416492, "lon": -35.54961983932625, "alt_km": 828.5411180472074, "timestamp": "2025-12-04T10:51:50.389590+00:00", "meta": {"OBJECT_NAME": "FENGYUN 1C DEB", "OBJECT_ID": "1999-025CHD", "EPOCH": "2025-12-03T05:54:03.885120", "MEAN_MOTION": 14.1027738, "ECCENTRICITY": 0.0059653, "INCLINATION": 98.7675, "RA_OF_ASC_NODE": 323.8095, "ARG_OF_PERICENTER": 48.8072, "MEAN_ANOMALY": 311.8221, "EPHEMERIS_TYPE": 0, "CLASSIFICATION_TYPE": "U", "NORAD_CAT_ID": 31815, "ELEMENT_SET_NO": 999, "REV_AT_EPOCH": 95405, "BSTAR": 0.00011622, "MEAN_MOTION_DOT": 1.67e-06, "MEAN_MOTION_DDOT": 0}, "tle": {"line1": "1 31815U 99025CHD 25337.24587830  .00000167  00000+0  11622-3 0  9998", "line2": "2 31815  98.7675 323.8095 0059653  48.8072 311.8221 14.10277380954053"}}, "geometry": {"type": "Point", "coordinates": [-35.54961983932625, 3.4659996044416492]}}, {"type": "Feature", "properties": {"norad_id": 31816, "name": "FENGYUN 1C DEB", "group": "fengyun-1c-debris", "lat": 61.46636873331068, "lon": -70.1292017310418, "alt_km": 862.3905503995647, "timestamp": "2025-12-04T10:51:50.389601+00:00", "meta": {"OBJECT_NAME": "FENGYUN 1C DEB", "OBJECT_ID": "1999-025CHE", "EPOCH": "2025-11-23T07:26:54.652128", "MEAN_MOTION": 13.94096492, "ECCENTRICITY": 0.01210461, "INCLINATION": 98.9829, "RA_OF_ASC_NODE": 82.1237, "ARG_OF_PERICENTER": 207.0018, "MEAN_ANOMALY": 180.5984, "EPHEMERIS_TYPE": 0, "CLASSIFICATION_TYPE": "U", "NORAD_CAT_ID": 31816, "ELEMENT_SET_NO": 999, "REV_AT_EPOCH": 93423, "BSTAR": 0.0012545957, "MEAN_MOTION_DOT": 1.723e-05, "MEAN_MOTION_DDOT": 0}, "tle": {"line1": "1 31816U 99025CHE 25327.31035477  .00001723  00000+0  12546-2 0  9995", "line2": "2 31816  98.9829  82.1237 0121046 207.0018 180.5984 13.94096492934234"}}, "geometry": {"type": "Point", "coordinates": [-70.1292017310418, 61.46636873331068]}}, {"type": "Feature", "properties": {"norad_id": 31817, "name": "FENGYUN 1C DEB", "group": "fengyun-1c-debris", "lat": 17.66243941354469, "lon": -28.75408494397435, "alt_km": 669.924213766817, "timestamp": "2025-12-04T10:51:50.389611+00:00", "meta": {"OBJECT_NAME": "FENGYUN 1C DEB", "OBJECT_ID": "1999-025CHF", "EPOCH": "2025-12-02T04:42:22.251168", "MEAN_MOTION": 14.65434221, "ECCENTRICITY": 0.0062808, "INCLINATION": 98.9192, "RA_OF_ASC_NODE": 331.6652, "ARG_OF_PERICENTER": 107.4446, "MEAN_ANOMALY": 253.3634, "EPHEMERIS_TYPE": 0, "CLASSIFICATION_TYPE": "U", "NORAD_CAT_ID": 31817, "ELEMENT_SET_NO": 999, "REV_AT_EPOCH": 71251, "BSTAR": 0.0014364, "MEAN_MOTION_DOT": 7.95e-05, "MEAN_MOTION_DDOT": 0}, "tle": {"line1": "1 31817U 99025CHF 25336.19609087  .00007950  00000+0  14364-2 0  9994", "line2": "2 31817  98.9192 331.6652 0062808 107.4446 253.3634 14.65434221712510"}}, "geometry": {"type": "Point", "coordinates": [-28.75408494397435, 17.66243941354469]}}, {"type": "Feature", "properties": {"norad_id": 31819, "name": "FENGYUN 1C DEB", "group": "fengyun-1c-debris", "lat": -78.5270285119336, "lon": 17.242988375159545, "alt_km": 773.8627564599792, "timestamp": "2025-12-04T10:51:50.389621+00:00", "meta": {"OBJECT_NAME": "FENGYUN 1C DEB", "OBJECT_ID": "1999-025CHH", "EPOCH": "2025-12-01T19:26:11.468544", "MEAN_MOTION": 14.30134028, "ECCENTRICITY": 0.00875682, "INCLINATION": 98.4736, "RA_OF_ASC_NODE": 327.4043, "ARG_OF_PERICENTER": 352.8381, "MEAN_ANOMALY": 7.1544, "EPHEMERIS_TYPE": 0, "CLASSIFICATION_TYPE": "U", "NORAD_CAT_ID": 31819, "ELEMENT_SET_NO": 999, "REV_AT_EPOCH": 96537, "BSTAR": 0.00045097789, "MEAN_MOTION_DOT": 1.173e-05, "MEAN_MOTION_DDOT": 0}, "tle": {"line1": "1 31819U 99025CHH 25335.80985496  .00001173  00000+0  45098-3 0  9994", "line2": "2 31819  98.4736 327.4043 0087568 352.8381   7.1544 14.30134028965375"}}, "geometry": {"type": "Point", "coordinates": [17.242988375159545, -78.5270285119336]}}]}